OBJECT_NAME,OBJECT_ID,EPOCH,MEAN_MOTION,ECCENTRICITY,INCLINATION,RA_OF_ASC_NODE,ARG_OF_PERICENTER,MEAN_ANOMALY,EPHEMERIS_TYPE,CLASSIFICATION_TYPE,NORAD_CAT_ID,ELEMENT_SET_NO,REV_AT_EPOCH,BSTAR,MEAN_MOTION_DOT,MEAN_MOTION_DDOT
MONITOR-3 (RS58S),2023-091Q,2026-06-17T22:02:58.475904,15.27854318,.00131009,97.5079,232.3700,98.5751,261.6973,0,U,57180,999,16440,.3338722E-3,.9028E-4,0
MONITOR-4 (RS57S),2023-091S,2026-06-17T21:32:45.472128,15.27939578,.00130936,97.5073,232.3204,98.9441,261.3281,0,U,57182,999,16440,.31854941E-3,.8632E-4,0
MONITOR-2 (RS39S),2023-091U,2026-06-17T21:44:03.687072,15.18916443,.00127491,97.5069,227.1838,108.9465,251.3152,0,U,57184,999,16406,.21160974E-3,.4357E-4,0
SVYATOBOR 1 (RS60S),2023-091X,2026-06-17T21:52:29.345664,15.26626078,.0010876,97.5085,232.7323,92.3437,267.9047,0,U,57187,999,16442,.28823098E-3,.749E-4,0
HORS 1,2023-091Y,2026-06-17T21:31:35.587488,15.26732901,.0010327,97.5063,232.4801,92.2059,268.0362,0,U,57188,999,16442,.28441926E-3,.7413E-4,0
VIZARD-METEO (RS38S),2023-091Z,2026-06-17T22:18:16.249536,15.36046699,.000822,97.5090,238.4294,75.4198,284.7956,0,U,57189,999,16480,.40901338E-3,.143E-3,0
SITRO-AIS 6 (CHIRKIN),2023-091AC,2026-06-17T21:37:38.890848,15.25946701,.00131005,97.5064,231.9225,104.2536,256.0158,0,U,57192,999,16439,.3278676E-3,.8364E-4,0
SITRO-AIS 8 (ANOKHIN),2023-091AD,2026-06-17T22:28:11.983584,15.32154226,.00117753,97.5052,234.4343,97.7783,262.4796,0,U,57193,999,16456,.41007298E-3,.12685E-3,0
SITRO-AIS 7 (FARTUSHNIY),2023-091AE,2026-06-17T21:42:23.557248,15.25634813,.00129617,97.5061,231.7507,105.1788,255.0884,0,U,57194,999,16438,.32758757E-3,.8278E-4,0
AVION KALUGA 650,2023-091AF,2026-06-17T21:16:04.866816,15.20359153,.00119113,97.5086,228.4597,107.2148,253.0392,0,U,57195,999,16413,.2093371E-3,.4494E-4,0
HORS 2,2023-091AG,2026-06-17T22:45:12.435840,15.31908397,.00093286,97.5086,235.9880,85.5635,274.6672,0,U,57196,999,16464,.37297461E-3,.11431E-3,0
A-SEANSAT-PG1,2023-091AH,2026-06-17T22:08:37.664160,15.36981865,.00082407,97.5078,238.5196,82.9022,277.3159,0,U,57197,999,16482,.42549868E-3,.15337E-3,0
SITRO-AIS 10 (BURDAEV),2023-091AK,2026-06-17T21:35:26.296224,15.38636050,.00074537,97.5079,239.4588,78.2622,281.9458,0,U,57199,999,16487,.44801977E-3,.17044E-3,0
SITRO-AIS 9 (SHCHUKIN),2023-091AM,2026-06-17T22:13:46.918272,15.38143405,.00077193,97.5077,239.2155,78.1534,282.0576,0,U,57201,999,16486,.43449493E-3,.16263E-3,0
UTMN 2 (RS27S),2023-091AP,2026-06-17T21:50:14.271360,15.32067629,.00092199,97.5084,236.1409,81.5436,278.6850,0,U,57203,999,16465,.34929358E-3,.10752E-3,0
SITRO-AIS 12 (SMIRENNIY),2023-091AQ,2026-06-17T22:00:04.434336,15.38436816,.00072424,97.5090,239.6732,73.3262,286.8777,0,U,57204,999,16488,.42735258E-3,.16146E-3,0
SITRO-AIS 11 (SHEFFER),2023-091AU,2026-06-17T22:19:06.104928,15.38861691,.00071326,97.5088,239.9341,73.2744,286.9283,0,U,57208,999,16490,.44127025E-3,.16908E-3,0
H2SAT (HEINRICH HERTZ),2023-093A,2026-06-17T21:31:37.543584,1.00270744,.00008231,0.0575,105.7160,92.8518,31.1905,0,U,57213,999,1092,0,-.4E-7,0
KUZGTU 1 (RS47S),2023-091AV,2026-06-17T22:47:43.618560,15.29877570,.00122861,97.5061,233.4376,95.6188,264.6453,0,U,57217,999,16449,.35190494E-3,.10129E-3,0
QIANKUN-1,2023-103B,2026-06-15T08:46:25.019040,16.08420909,.00293788,96.1468,211.3446,145.9035,214.4147,0,U,57422,999,16700,.23232943E-4,.20233E-3,.1838074E-5
FENGYUN 3F,2023-111A,2026-06-17T23:03:27.292320,14.19939198,.00015937,98.6836,238.9550,92.8881,267.2478,0,U,57490,999,14897,.34895098E-4,.31E-6,0
HJ-2F,2023-116A,2026-06-17T23:24:43.484256,15.22330188,.00098026,97.3840,174.1802,49.8530,310.3564,0,U,57519,999,15887,.28032588E-3,.6402E-4,0
XRISM,2023-137A,2026-06-17T21:59:54.110400,15.12472233,.00079543,31.0032,354.8773,331.0868,28.9330,0,U,57800,999,15297,.2213158E-3,.4046E-4,0
METEOR-M2 4,2024-039A,2026-06-17T22:58:21.717984,14.22429630,.0007336,98.7010,128.2455,158.8228,201.3255,0,U,59051,999,11937,.24841012E-4,.12E-6,0
GRBBETA,2024-128C,2026-06-17T11:39:08.441568,15.06640908,.00406176,61.9882,215.2195,134.7304,225.7108,0,U,60237,999,10631,.17434717E-3,.2424E-4,0
TRANSPORTER-11 OBJECT A,2024-149A,2026-06-17T17:47:02.147712,15.32913785,.00029035,97.3732,248.6691,191.3056,168.8121,0,U,60468,999,10214,.2154467E-3,.6771E-4,0
WARATAH SEED-1,2024-149B,2026-06-17T19:51:55.598976,15.35959616,.00016076,97.3690,249.4028,176.5952,183.5303,0,U,60469,999,10221,.32550175E-3,.11318E-3,0
PHISAT 2,2024-149C,2026-06-17T18:23:20.608800,15.31074109,.00011182,97.3756,247.9791,173.9878,186.1377,0,U,60470,999,10208,.24577378E-3,.7301E-4,0
LEMUR-2-TOMATOKECHUP,2024-149D,2026-06-17T18:12:38.765664,15.36043764,.00015019,97.3800,250.8069,174.1749,185.9513,0,U,60471,999,10225,.26226038E-3,.9126E-4,0
